{
  "norad_id": 63045,
  "name": "STARLINK-32828",
  "history": [
    {
      "epoch": "2026-03-28T17:53:17.074464",
      "apogee_km": 475.90436046379455,
      "perigee_km": 474.3882771280114,
      "latitude_deg": -16.13932345470597,
      "longitude_deg": -163.9476950399112,
      "semi_major_axis_km": 6853.283318795903,
      "eccentricity": 0.00011061,
      "inclination_deg": 53.1582,
      "raan_deg": 182.4399,
      "arg_perigee_deg": 83.2597,
      "mean_anomaly_deg": 276.853,
      "mean_motion_rev_day": 15.30223026
    }
  ]
}