{"fetched_at":"2026-03-29T16:36:15Z","count":15609,"tles":[{"name":"STARLINK-32828","line1":"1 63045U 25034S   26087.74533651  .00045254  00000+0  15297-2 0  9994","line2":"2 63045  53.1582 182.4399 0001106  83.2597 276.8530 15.30223026 61824","category":"Starlink"}]}